ORBCOMM FM20            
1 25416U 98046D   25022.46746978  .00003017  00000+0  10629-2 0  9997
2 25416  44.9923 151.0993 0002096 221.8985 138.1702 14.36643616383300
ORBCOMM FM16            
1 25417U 98046E   25023.11268020  .00003666  00000+0  12438-2 0  9998
2 25417  44.9923 141.4156 0005377 265.0627  94.9608 14.38120406383586
ORBCOMM FM15            
1 25418U 98046F   25023.47126276  .00003591  00000+0  12270-2 0  9995
2 25418  44.9951 144.4427 0004882 265.6750  94.3540 14.37801084383581
ORBCOMM FM14            
1 25419U 98046G   25022.48099260  .00003618  00000+0  12288-2 0  9997
2 25419  44.9941 147.7647 0004139 249.4039 110.6366 14.38096930383233
ORBCOMM FM13            
1 25420U 98046H   25023.37959369  .00003634  00000+0  12607-2 0  9996
2 25420  44.9955 150.1502 0006015 254.2119 105.8066 14.37022250383535
ORBCOMM FM21            
1 25475U 98053A   25022.03557767  .00002006  00000+0  72083-3 0  9999
2 25475  45.0065 241.3521 0000966 174.1928 185.8931 14.36783575376220
ORBCOMM FM22            
1 25476U 98053B   25021.96218705  .00002717  00000+0  94317-3 0  9990
2 25476  45.0056 237.6442 0002872 190.7574 169.3213 14.37643836376226
ORBCOMM FM23            
1 25477U 98053C   25022.46917607  .00002216  00000+0  78944-3 0  9996
2 25477  45.0064 241.5971 0001953 188.4809 171.6006 14.36904320376437
